NORAD_CAT_ID,OBJECT_NAME,OBJECT_TYPE,EPOCH,MEAN_MOTION,ECCENTRICITY,INCLINATION,RA_OF_ASC_NODE,ARG_OF_PERICENTER,MEAN_ANOMALY,BSTAR,MEAN_MOTION_DOT,MEAN_MOTION_DDOT,TLE_LINE0,TLE_LINE1,TLE_LINE2,SEMIMAJOR_AXIS,PERIOD,APOGEE,PERIGEE,DECAYED
54208.0,STARLINK-5255,PAYLOAD,2022-12-30 12:04:28,15.73232882,0.0002421999999999,53.2135,189.8154,2.9909,357.1125,0.00016866,0.0002315,0.0,0 STARLINK-5255,1 54208U 22141BD  22364.50311307  .00023150  00000-0  16866-3 0  9997,2 54208  53.2135 189.8154 0002422   2.9909 357.1125 15.73232882 10023,6727.801,91.531,351.296,348.037,0.0
54208.0,STARLINK-5255,PAYLOAD,2022-12-30 22:44:48,15.7328228,0.0003261,53.2137,187.6156,14.9817,345.1299,0.00020886,0.000289,0.0,0 STARLINK-5255,1 54208U 22141BD  22364.94778804  .00028900  00000-0  20886-3 0  9999,2 54208  53.2137 187.6156 0003261  14.9817 345.1299 15.73282280 10325,6727.661,91.528,351.719,347.332,0.0
54208.0,STARLINK-5255,PAYLOAD,2022-12-31 12:28:06,15.7326311,0.0003016,53.2138,184.7868,10.765,349.3435,3.48e-05,4.277e-05,0.0,0 STARLINK-5255,1 54208U 22141BD  22365.51952230  .00004277  00000-0  34800-4 0  9993,2 54208  53.2138 184.7868 0003016  10.7650 349.3435 15.73263110 10184,6727.715,91.53,351.6090000000001,347.551,0.0
54208.0,STARLINK-5255,PAYLOAD,2022-12-31 18:34:02,15.73209691,0.0003159,53.2137,183.529,12.6739,347.436,-0.000148,-0.00021356,0.0,0 STARLINK-5255,1 54208U 22141BD  22365.77363934 -.00021356  00000-0 -14800-3 0  9994,2 54208  53.2137 183.5290 0003159  12.6739 347.4360 15.73209691 10221,6727.868,91.533,351.858,347.607,0.0
54208.0,STARLINK-5255,PAYLOAD,2023-01-01 05:14:24,15.73182035,0.0003228,53.2135,181.3297,5.3301,354.7753,-0.00011279,-0.00016414,0.0,0 STARLINK-5255,1 54208U 22141BD  23001.21834134 -.00016414  00000-0 -11279-3 0  9992,2 54208  53.2135 181.3297 0003228   5.3301 354.7753 15.73182035 10525,6727.946,91.534,351.983,347.64,0.0
54208.0,STARLINK-5255,PAYLOAD,2023-01-01 12:51:49,15.73169473,0.0003413,53.2128,179.7565,15.8013,344.3113,-3.8835e-05,-6.064e-05,0.0,0 STARLINK-5255,1 54208U 22141BD  23001.53599291 -.00006064  00000-0 -38835-4 0  9997,2 54208  53.2128 179.7565 0003413  15.8013 344.3113 15.73169473 10344,6727.982,91.535,352.14300000000014,347.551,0.0
54208.0,STARLINK-5255,PAYLOAD,2023-01-01 15:54:47,15.73154994,0.0003339,53.213,179.1295,3.0747,357.0293,-6.583899999999999e-05,-9.837e-05,0.0,0 STARLINK-5255,1 54208U 22141BD  23001.66305403 -.00009837  00000-0 -65839-4 0  9996,2 54208  53.2130 179.1295 0003339   3.0747 357.0293 15.73154994 10590,6728.023,91.536,352.135,347.642,0.0
54208.0,STARLINK-5255,PAYLOAD,2023-01-01 17:26:16,15.73150485,0.0003362,53.213,178.8152,3.0271,357.0768,-5.7878e-05,-8.723e-05,0.0,0 STARLINK-5255,1 54208U 22141BD  23001.72658518 -.00008723  00000-0 -57878-4 0  9998,2 54208  53.2130 178.8152 0003362   3.0271 357.0768 15.73150485 10370,6728.036,91.536,352.163,347.639,0.0
54208.0,STARLINK-5255,PAYLOAD,2023-01-02 11:44:04,15.73183652,0.0003477,53.213,175.041,10.0017,350.1071,9.2997e-05,0.00012442,0.0,0 STARLINK-5255,1 54208U 22141BD  23002.48893534  .00012442  00000-0  92997-4 0  9993,2 54208  53.2130 175.0410 0003477  10.0017 350.1071 15.73183652 10721,6727.941999999999,91.534,352.146,347.467,0.0
54208.0,STARLINK-5255,PAYLOAD,2023-01-02 17:49:59,15.7319475,0.0003478999999999,53.2129,173.7839,13.1914,346.9196,0.00011672,0.00015789,0.0,0 STARLINK-5255,1 54208U 22141BD  23002.74304874  .00015789  00000-0  11672-3 0  9993,2 54208  53.2129 173.7839 0003479  13.1914 346.9196 15.73194750 10532,6727.91,91.533,352.116,347.435,0.0
54208.0,STARLINK-5255,PAYLOAD,2023-01-03 12:07:44,15.73228138,0.000377,53.2125,170.0114,9.638,350.4712,0.0001119,0.00015133,0.0,0 STARLINK-5255,1 54208U 22141BD  23003.50537740  .00015133  00000-0  11190-3 0  9996,2 54208  53.2125 170.0114 0003770   9.6380 350.4712 15.73228138 10885,6727.815,91.532,352.216,347.144,0.0
54208.0,STARLINK-5255,PAYLOAD,2023-01-04 10:59:55,15.73230704,0.0003978999999999,53.2123,165.2959,10.8795,349.231,5.4375e-05,7.026e-05,0.0,0 STARLINK-5255,1 54208U 22141BD  23004.45828507  .00007026  00000-0  54375-4 0  9990,2 54208  53.2123 165.2959 0003979  10.8795 349.2310 15.73230704 11031,6727.808000000001,91.531,352.35,346.996,0.0
54208.0,STARLINK-5255,PAYLOAD,2023-01-04 17:05:50,15.73240797,0.0003981,53.2123,164.0382,11.5175,348.5936,7.3229e-05,9.686e-05,0.0,0 STARLINK-5255,1 54208U 22141BD  23004.71239060  .00009686  00000-0  73229-4 0  9992,2 54208  53.2123 164.0382 0003981  11.5175 348.5936 15.73240797 10848,6727.779,91.531,352.32199999999995,346.966,0.0
54208.0,STARLINK-5255,PAYLOAD,2023-01-05 03:46:10,15.73262929,0.0003853,53.2148,161.8363,9.3444,350.7648,0.0001085,0.00014676,0.0,0 STARLINK-5255,1 54208U 22141BD  23005.15706916  .00014676  00000-0  10850-3 0  9995,2 54208  53.2148 161.8363 0003853   9.3444 350.7648 15.73262929 11141,6727.715999999999,91.53,352.173,346.98900000000015,0.0
54208.0,STARLINK-5255,PAYLOAD,2023-01-05 12:55:02,15.7325971,0.0003808,53.212,159.9478,20.8689,339.2486,5.6044e-05,7.269999999999999e-05,0.0,0 STARLINK-5255,1 54208U 22141BD  23005.53822677  .00007270  00000-0  56044-4 0  9998,2 54208  53.2120 159.9478 0003808  20.8689 339.2486 15.73259710 10971,6727.725,91.53,352.152,347.028,0.0
54208.0,STARLINK-5255,PAYLOAD,2023-01-05 15:58:00,15.7323889,0.0004095,53.2152,159.3219,5.8383,354.2684,-7.4472e-06,-1.673e-05,0.0,0 STARLINK-5255,1 54208U 22141BD  23005.66528295 -.00001673  00000-0 -74472-5 0  9990,2 54208  53.2152 159.3219 0004095   5.8383 354.2684 15.73238890 11228,6727.7840000000015,91.531,352.404,346.894,0.0
54208.0,STARLINK-5255,PAYLOAD,2023-01-07 03:02:02,15.74049322,0.0007606,53.2151,152.0895,333.6081,26.4551,0.0013107,0.00194897,0.0,0 STARLINK-5255,1 54208U 22141BD  23007.12641812  .00194897  00000-0  13107-2 0  9998,2 54208  53.2151 152.0895 0007606 333.6081  26.4551 15.74049322 11452,6725.475,91.484,352.455,342.224,0.0
54208.0,STARLINK-5255,PAYLOAD,2023-01-07 14:00:01,15.73147377,0.0004232,53.2141,149.83100000000005,1.1826,68.0824,-1.7355e-05,-3.055e-05,0.0,0 STARLINK-5255,1 54208U 22141BD  23007.58334491 -.00003055  00000-0 -17355-4 0  9998,2 54208  53.2141 149.8310 0004232   1.1826  68.0824 15.73147377 11524,6728.045,91.536,352.7580000000001,347.0630000000001,0.0
54208.0,STARLINK-5255,PAYLOAD,2023-01-07 18:16:53,15.73176267,0.0004198,53.2146,148.9494,355.38199999999995,4.7161,5.008e-05,6.405e-05,0.0,0 STARLINK-5255,1 54208U 22141BD  23007.76173333  .00006405  00000-0  50080-4 0  9996,2 54208  53.2146 148.9494 0004198 355.3820   4.7161 15.73176267 11320,6727.963000000002,91.535,352.652,347.0030000000001,0.0
54208.0,STARLINK-5255,PAYLOAD,2023-01-08 01:54:18,15.73177736,0.0003887,53.2152,147.3754,353.7069,6.3902,-2.0513e-05,-3.5e-05,0.0,0 STARLINK-5255,1 54208U 22141BD  23008.07937618 -.00003500  00000-0 -20513-4 0  9998,2 54208  53.2152 147.3754 0003887 353.7069   6.3902 15.73177736 11604,6727.959,91.534,352.439,347.208,0.0
54208.0,STARLINK-5255,PAYLOAD,2023-01-08 18:40:35,15.73219883,0.0004601,53.215,143.9163,357.5697,2.53,0.00017288,0.0002374,0.0,0 STARLINK-5255,1 54208U 22141BD  23008.77818345  .00023740  00000-0  17288-3 0  9990,2 54208  53.2150 143.9163 0004601 357.5697   2.5300 15.73219883 11714,6727.838000000002,91.532,352.7990000000001,346.608,0.0
54208.0,STARLINK-5255,PAYLOAD,2023-01-09 02:17:58,15.73232481,0.0004293,53.2149,142.3454,351.6090000000001,8.4858,0.00014371,0.00019629,0.0,0 STARLINK-5255,1 54208U 22141BD  23009.09581548  .00019629  00000-0  14371-3 0  9999,2 54208  53.2149 142.3454 0004293 351.6090   8.4858 15.73232481 11539,6727.803000000001,91.531,352.556,346.779,0.0
54208.0,STARLINK-5255,PAYLOAD,2023-01-09 17:32:45,15.73222036,0.0004231,53.2145,139.2025,339.5403,20.5447,3.7478e-05,4.645e-05,0.0,0 STARLINK-5255,1 54208U 22141BD  23009.73108725  .00004645  00000-0  37478-4 0  9998,2 54208  53.2145 139.2025 0004231 339.5403  20.5447 15.73222036 11869,6727.831999999999,91.532,352.5440000000001,346.851,0.0
54208.0,STARLINK-5255,PAYLOAD,2023-01-10 01:10:10,15.73214526,0.0004581,53.2154,137.6291,355.4380000000001,4.6598,3.4164e-05,4.177e-05,0.0,0 STARLINK-5255,1 54208U 22141BD  23010.04873100  .00004177  00000-0  34164-4 0  9999,2 54208  53.2154 137.6291 0004581 355.4380   4.6598 15.73214526 11916,6727.854,91.532,352.801,346.63699999999994,0.0
54208.0,STARLINK-5255,PAYLOAD,2023-01-10 11:50:32,15.73204576,0.0004438,53.2149,135.4299,352.8883,7.2073,2.2637e-05,2.555e-05,0.0,0 STARLINK-5255,1 54208U 22141BD  23010.49342782  .00002555  00000-0  22637-4 0  9995,2 54208  53.2149 135.4299 0004438 352.8883   7.2073 15.73204576 11982,6727.882,91.533,352.733,346.761,0.0
54208.0,STARLINK-5255,PAYLOAD,2023-01-10 13:22:01,15.7320448,0.0004313,53.2158,135.1165,359.5209,0.5806,1.3534e-05,1.276e-05,0.0,0 STARLINK-5255,1 54208U 22141BD  23010.55695697  .00001276  00000-0  13534-4 0  9993,2 54208  53.2158 135.1165 0004313 359.5209   0.5806 15.73204480 11769,6727.882,91.533,352.649,346.846,0.0
54208.0,STARLINK-5255,PAYLOAD,2023-01-10 16:24:59,15.73200032,0.000529,53.2159,134.4867,356.467,3.6312,-2.3066e-06,-9.51e-06,0.0,0 STARLINK-5255,1 54208U 22141BD  23010.68401627 -.00000951  00000-0 -23066-5 0  9998,2 54208  53.2159 134.4867 0005290 356.4670   3.6312 15.73200032 12018,6727.895,91.533,353.319,346.201,0.0
54208.0,STARLINK-5255,PAYLOAD,2023-01-11 12:14:12,15.7322988,0.000467,53.2135,130.3993,350.5186,9.5745,7.526600000000001e-05,9.969e-05,0.0,0 STARLINK-5255,1 54208U 22141BD  23011.50986352  .00009969  00000-0  75266-4 0  9997,2 54208  53.2135 130.3993 0004670 350.5186   9.5745 15.73229880 11910,6727.81,91.531,352.81699999999995,346.533,0.0
54208.0,STARLINK-5255,PAYLOAD,2023-01-11 15:17:09,15.73196843,0.0003387,53.2141,129.7704,352.6031,7.4938,-4.2248e-05,-6.549e-05,0.0,0 STARLINK-5255,1 54208U 22141BD  23011.63692067 -.00006549  00000-0 -42248-4 0  9995,2 54208  53.2141 129.7704 0003387 352.6031   7.4938 15.73196843 12166,6727.904,91.533,352.048,347.49,0.0
